{
  "type": "FeatureCollection",
  "features": [
    {
      "type": "Feature",
      "properties": {
        "norad_id": 41890,
        "name": "CYGFM07",
        "group": "weather",
        "lat": 23.497156087720903,
        "lon": 12.697814080813014,
        "alt_km": 415.3742537882508,
        "timestamp": "2025-12-19T22:41:52.021517+00:00",
        "meta_object_name": "CYGFM07",
        "meta_object_id": "2016-078G",
        "meta_epoch": "2025-12-19T08:35:55.881024",
        "meta_mean_motion": 15.50269103,
        "meta_eccentricity": 0.0010122,
        "meta_inclination": 34.9484,
        "meta_ra_of_asc_node": 338.0499,
        "meta_arg_of_pericenter": 271.9138,
        "meta_mean_anomaly": 88.0425,
        "meta_ephemeris_type": 0,
        "meta_classification_type": "U",
        "meta_norad_cat_id": 41890,
        "meta_element_set_no": 999,
        "meta_rev_at_epoch": 50098,
        "meta_bstar": 0.00031348,
        "meta_mean_motion_dot": 0.00018328,
        "meta_mean_motion_ddot": 0,
        "tle_line1": "1 41890U 16078G   25353.35828566  .00018328  00000+0  31348-3 0  9998",
        "tle_line2": "2 41890  34.9484 338.0499 0010122 271.9138  88.0425 15.50269103500980"
      },
      "geometry": {
        "type": "Point",
        "coordinates": [
          12.697814080813014,
          23.497156087720903
        ]
      }
    },
    {
      "type": "Feature",
      "properties": {
        "norad_id": 41891,
        "name": "CYGFM03",
        "group": "weather",
        "lat": -28.38993605758676,
        "lon": -153.16230344346513,
        "alt_km": 412.1562175125464,
        "timestamp": "2025-12-19T22:41:52.021527+00:00",
        "meta_object_name": "CYGFM03",
        "meta_object_id": "2016-078H",
        "meta_epoch": "2025-12-19T09:19:08.109120",
        "meta_mean_motion": 15.50167103,
        "meta_eccentricity": 0.0009679,
        "meta_inclination": 34.9439,
        "meta_ra_of_asc_node": 339.7759,
        "meta_arg_of_pericenter": 260.0765,
        "meta_mean_anomaly": 99.8864,
        "meta_ephemeris_type": 0,
        "meta_classification_type": "U",
        "meta_norad_cat_id": 41891,
        "meta_element_set_no": 999,
        "meta_rev_at_epoch": 50096,
        "meta_bstar": 0.0003054,
        "meta_mean_motion_dot": 0.00017785,
        "meta_mean_motion_ddot": 0,
        "tle_line1": "1 41891U 16078H   25353.38828830  .00017785  00000+0  30540-3 0  9995",
        "tle_line2": "2 41891  34.9439 339.7759 0009679 260.0765  99.8864 15.50167103500960"
      },
      "geometry": {
        "type": "Point",
        "coordinates": [
          -153.16230344346513,
          -28.38993605758676
        ]
      }
    },
    {
      "type": "Feature",
      "properties": {
        "norad_id": 43010,
        "name": "FENGYUN 3D",
        "group": "weather",
        "lat": 79.2474352187525,
        "lon": -163.1709878058968,
        "alt_km": 818.5973137287492,
        "timestamp": "2025-12-19T22:41:52.021538+00:00",
        "meta_object_name": "FENGYUN 3D",
        "meta_object_id": "2017-072A",
        "meta_epoch": "2025-12-19T18:51:53.159616",
        "meta_mean_motion": 14.19684655,
        "meta_eccentricity": 0.0001309,
        "meta_inclination": 98.9893,
        "meta_ra_of_asc_node": 320.2014,
        "meta_arg_of_pericenter": 159.1228,
        "meta_mean_anomaly": 201.0001,
        "meta_ephemeris_type": 0,
        "meta_classification_type": "U",
        "meta_norad_cat_id": 43010,
        "meta_element_set_no": 999,
        "meta_rev_at_epoch": 41953,
        "meta_bstar": -0.00014027,
        "meta_mean_motion_dot": -3.43e-06,
        "meta_mean_motion_ddot": 0,
        "tle_line1": "1 43010U 17072A   25353.78603194 -.00000343  00000+0 -14027-3 0  9999",
        "tle_line2": "2 43010  98.9893 320.2014 0001309 159.1228 201.0001 14.19684655419534"
      },
      "geometry": {
        "type": "Point",
        "coordinates": [
          -163.1709878058968,
          79.2474352187525
        ]
      }
    },
    {
      "type": "Feature",
      "properties": {
        "norad_id": 43013,
        "name": "NOAA 20 (JPSS-1)",
        "group": "weather",
        "lat": -62.72660979741111,
        "lon": 92.7597436168469,
        "alt_km": 835.5983577594379,
        "timestamp": "2025-12-19T22:41:52.021550+00:00",
        "meta_object_name": "NOAA 20 (JPSS-1)",
        "meta_object_id": "2017-073A",
        "meta_epoch": "2025-12-19T18:10:06.699072",
        "meta_mean_motion": 14.19527449,
        "meta_eccentricity": 0.0002123,
        "meta_inclination": 98.7608,
        "meta_ra_of_asc_node": 289.9772,
        "meta_arg_of_pericenter": 77.1387,
        "meta_mean_anomaly": 283.0026,
        "meta_ephemeris_type": 0,
        "meta_classification_type": "U",
        "meta_norad_cat_id": 43013,
        "meta_element_set_no": 999,
        "meta_rev_at_epoch": 41901,
        "meta_bstar": 4.0225e-05,
        "meta_mean_motion_dot": 4.1e-07,
        "meta_mean_motion_ddot": 0,
        "tle_line1": "1 43013U 17073A   25353.75702198  .00000041  00000+0  40225-4 0  9997",
        "tle_line2": "2 43013  98.7608 289.9772 0002123  77.1387 283.0026 14.19527449419018"
      },
      "geometry": {
        "type": "Point",
        "coordinates": [
          92.7597436168469,
          -62.72660979741111
        ]
      }
    },
    {
      "type": "Feature",
      "properties": {
        "norad_id": 43226,
        "name": "GOES 17",
        "group": "weather",
        "lat": -0.4544448184290393,
        "lon": -20.22891416373497,
        "alt_km": 35779.78150321032,
        "timestamp": "2025-12-19T22:41:52.021563+00:00",
        "meta_object_name": "GOES 17",
        "meta_object_id": "2018-022A",
        "meta_epoch": "2025-12-19T11:26:17.750976",
        "meta_mean_motion": 1.00270964,
        "meta_eccentricity": 0.0003082,
        "meta_inclination": 0.474,
        "meta_ra_of_asc_node": 89.1739,
        "meta_arg_of_pericenter": 191.1693,
        "meta_mean_anomaly": 250.0534,
        "meta_ephemeris_type": 0,
        "meta_classification_type": "U",
        "meta_norad_cat_id": 43226,
        "meta_element_set_no": 999,
        "meta_rev_at_epoch": 2862,
        "meta_bstar": 0,
        "meta_mean_motion_dot": -1.58e-06,
        "meta_mean_motion_ddot": 0,
        "tle_line1": "1 43226U 18022A   25353.47659434 -.00000158  00000+0  00000+0 0  9993",
        "tle_line2": "2 43226   0.4740  89.1739 0003082 191.1693 250.0534  1.00270964 28620"
      },
      "geometry": {
        "type": "Point",
        "coordinates": [
          -20.22891416373497,
          -0.4544448184290393
        ]
      }
    },
    {
      "type": "Feature",
      "properties": {
        "norad_id": 43491,
        "name": "FENGYUN 2H",
        "group": "weather",
        "lat": 2.3836826055305838,
        "lon": 148.55201772172424,
        "alt_km": 35787.43027129042,
        "timestamp": "2025-12-19T22:41:52.021577+00:00",
        "meta_object_name": "FENGYUN 2H",
        "meta_object_id": "2018-050A",
        "meta_epoch": "2025-12-19T19:51:59.270976",
        "meta_mean_motion": 1.00271273,
        "meta_eccentricity": 0.0002392,
        "meta_inclination": 2.5684,
        "meta_ra_of_asc_node": 81.2553,
        "meta_arg_of_pericenter": 165.6942,
        "meta_mean_anomaly": 219.0706,
        "meta_ephemeris_type": 0,
        "meta_classification_type": "U",
        "meta_norad_cat_id": 43491,
        "meta_element_set_no": 999,
        "meta_rev_at_epoch": 2764,
        "meta_bstar": 0,
        "meta_mean_motion_dot": -1.08e-06,
        "meta_mean_motion_ddot": 0,
        "tle_line1": "1 43491U 18050A   25353.82776934 -.00000108  00000+0  00000+0 0  9997",
        "tle_line2": "2 43491   2.5684  81.2553 0002392 165.6942 219.0706  1.00271273 27648"
      },
      "geometry": {
        "type": "Point",
        "coordinates": [
          148.55201772172424,
          2.3836826055305838
        ]
      }
    },
    {
      "type": "Feature",
      "properties": {
        "norad_id": 43689,
        "name": "METOP-C",
        "group": "weather",
        "lat": 73.32212089731583,
        "lon": 20.900019755412345,
        "alt_km": 812.8461547517791,
        "timestamp": "2025-12-19T22:41:52.021588+00:00",
        "meta_object_name": "METOP-C",
        "meta_object_id": "2018-087A",
        "meta_epoch": "2025-12-19T17:16:29.993376",
        "meta_mean_motion": 14.21486933,
        "meta_eccentricity": 9.09e-05,
        "meta_inclination": 98.692,
        "meta_ra_of_asc_node": 51.3822,
        "meta_arg_of_pericenter": 27.4381,
        "meta_mean_anomaly": 332.6844,
        "meta_ephemeris_type": 0,
        "meta_classification_type": "U",
        "meta_norad_cat_id": 43689,
        "meta_element_set_no": 999,
        "meta_rev_at_epoch": 36933,
        "meta_bstar": 6.629e-05,
        "meta_mean_motion_dot": 1.01e-06,
        "meta_mean_motion_ddot": 0,
        "tle_line1": "1 43689U 18087A   25353.71979159  .00000101  00000+0  66290-4 0  9998",
        "tle_line2": "2 43689  98.6920  51.3822 0000909  27.4381 332.6844 14.21486933369335"
      },
      "geometry": {
        "type": "Point",
        "coordinates": [
          20.900019755412345,
          73.32212089731583
        ]
      }
    }
  ]
}